[{"OBJECT_NAME":"YAOGAN-30 05B","OBJECT_ID":"2018-011C","EPOCH":"2026-03-09T22:52:34.937760","MEAN_MOTION":15.02097859,"ECCENTRICITY":0.00016704,"INCLINATION":34.9964,"RA_OF_ASC_NODE":35.2967,"ARG_OF_PERICENTER":216.2291,"MEAN_ANOMALY":143.8304,"EPHEMERIS_TYPE":0,"CLASSIFICATION_TYPE":"U","NORAD_CAT_ID":43171,"ELEMENT_SET_NO":999,"REV_AT_EPOCH":44328,"BSTAR":0.00032774516,"MEAN_MOTION_DOT":4.367e-5,"MEAN_MOTION_DDOT":0},{"OBJECT_NAME":"KOMPSAT-7","OBJECT_ID":"2025-279A","EPOCH":"2026-03-09T20:54:17.078400","MEAN_MOTION":15.01421798,"ECCENTRICITY":0.00098953,"INCLINATION":97.6738,"RA_OF_ASC_NODE":18.4558,"ARG_OF_PERICENTER":343.5135,"MEAN_ANOMALY":16.5766,"EPHEMERIS_TYPE":0,"CLASSIFICATION_TYPE":"U","NORAD_CAT_ID":66820,"ELEMENT_SET_NO":999,"REV_AT_EPOCH":1472,"BSTAR":0.00031598708,"MEAN_MOTION_DOT":4.022e-5,"MEAN_MOTION_DDOT":0}]
